[{"OBJECT_NAME":"XINGYUN-2 02","OBJECT_ID":"2020-028B","EPOCH":"2026-03-10T00:08:18.521088","MEAN_MOTION":15.11086378,"ECCENTRICITY":0.0009258,"INCLINATION":97.5114,"RA_OF_ASC_NODE":76.7595,"ARG_OF_PERICENTER":249.9829,"MEAN_ANOMALY":110.0404,"EPHEMERIS_TYPE":0,"CLASSIFICATION_TYPE":"U","NORAD_CAT_ID":45603,"ELEMENT_SET_NO":999,"REV_AT_EPOCH":31985,"BSTAR":0.00013296102,"MEAN_MOTION_DOT":2.163e-5,"MEAN_MOTION_DDOT":0},{"OBJECT_NAME":"STARLINK-4152","OBJECT_ID":"2022-083E","EPOCH":"2026-03-09T14:41:26.153664","MEAN_MOTION":15.0883754,"ECCENTRICITY":0.0001398,"INCLINATION":53.2186,"RA_OF_ASC_NODE":174.4695,"ARG_OF_PERICENTER":92.2733,"MEAN_ANOMALY":267.8419,"EPHEMERIS_TYPE":0,"CLASSIFICATION_TYPE":"U","NORAD_CAT_ID":53136,"ELEMENT_SET_NO":999,"REV_AT_EPOCH":20219,"BSTAR":9.4972e-6,"MEAN_MOTION_DOT":-1.37e-6,"MEAN_MOTION_DDOT":0}]
